{
    "links": {
        "self": "http://www.neowsapp.com/rest/v1/neo/3789604?api_key=iIulBulltgU6a56xZRHN4H3l9WmuAYTsLGpBGhQ2"
    },
    "id": "3789604",
    "neo_reference_id": "3789604",
    "name": "(2017 WR12)",
    "designation": "2017 WR12",
    "nasa_jpl_url": "http://ssd.jpl.nasa.gov/sbdb.cgi?sstr=3789604",
    "absolute_magnitude_h": 22.1,
    "estimated_diameter": {
        "kilometers": {
            "estimated_diameter_min": 0.1010543415,
            "estimated_diameter_max": 0.2259643771
        },
        "meters": {
            "estimated_diameter_min": 101.054341542,
            "estimated_diameter_max": 225.9643771094
        },
        "miles": {
            "estimated_diameter_min": 0.0627922373,
            "estimated_diameter_max": 0.140407711
        },
        "feet": {
            "estimated_diameter_min": 331.5431259047,
            "estimated_diameter_max": 741.3529669956
        }
    },
    "is_potentially_hazardous_asteroid": false,
    "close_approach_data": [
        {
            "close_approach_date": "2012-11-03",
            "close_approach_date_full": "2012-Nov-03 11:38",
            "epoch_date_close_approach": 1351942680000,
            "relative_velocity": {
                "kilometers_per_second": "19.7977326817",
                "kilometers_per_hour": "71271.8376540592",
                "miles_per_hour": "44285.5482356569"
            },
            "miss_distance": {
                "astronomical": "0.3151202823",
                "lunar": "122.5817898147",
                "kilometers": "47141323.025878701",
                "miles": "29292259.8281440338"
            },
            "orbiting_body": "Earth"
        },
        {
            "close_approach_date": "2017-09-22",
            "close_approach_date_full": "2017-Sep-22 12:26",
            "epoch_date_close_approach": 1506083160000,
            "relative_velocity": {
                "kilometers_per_second": "8.2322275732",
                "kilometers_per_hour": "29636.0192635475",
                "miles_per_hour": "18414.6698585082"
            },
            "miss_distance": {
                "astronomical": "0.2330636372",
                "lunar": "90.6617548708",
                "kilometers": "34865823.699572764",
                "miles": "21664618.2452175832"
            },
            "orbiting_body": "Earth"
        },
        {
            "close_approach_date": "2022-06-17",
            "close_approach_date_full": "2022-Jun-17 21:29",
            "epoch_date_close_approach": 1655501340000,
            "relative_velocity": {
                "kilometers_per_second": "19.9816137316",
                "kilometers_per_hour": "71933.809433693",
                "miles_per_hour": "44696.8717561744"
            },
            "miss_distance": {
                "astronomical": "0.3876117252",
                "lunar": "150.7809611028",
                "kilometers": "57985888.476945324",
                "miles": "36030760.3310165112"
            },
            "orbiting_body": "Earth"
        }
    ],
    "orbital_data": {
        "orbit_id": "3",
        "orbit_determination_date": "2017-12-10 06:27:25",
        "first_observation_date": "2017-11-18",
        "last_observation_date": "2017-12-09",
        "data_arc_in_days": 21,
        "observations_used": 27,
        "orbit_uncertainty": "7",
        "minimum_orbit_intersection": ".125598",
        "jupiter_tisserand_invariant": "3.861",
        "epoch_osculation": "2459000.5",
        "eccentricity": ".4797489659051771",
        "semi_major_axis": "1.823147133628545",
        "inclination": "14.19628502445573",
        "ascending_node_longitude": "230.4216360172877",
        "orbital_period": "899.1476330013242",
        "perihelion_distance": ".948494181577263",
        "perihelion_argument": "107.10075789325",
        "aphelion_distance": "2.697800085679828",
        "perihelion_time": "2458893.754692397580",
        "mean_anomaly": "42.73859967644989",
        "mean_motion": ".400379188897303",
        "equinox": "J2000",
        "orbit_class": {
            "orbit_class_type": "APO",
            "orbit_class_description": "Near-Earth asteroid orbits which cross the Earth’s orbit similar to that of 1862 Apollo",
            "orbit_class_range": "a (semi-major axis) > 1.0 AU; q (perihelion) < 1.017 AU"
        }
    },
    "is_sentry_object": false
}